[{"OBJECT_NAME":"TIRSAT","OBJECT_ID":"2024-032C","EPOCH":"2026-03-09T22:53:26.104704","MEAN_MOTION":14.72202351,"ECCENTRICITY":0.00062938,"INCLINATION":98.0088,"RA_OF_ASC_NODE":128.8335,"ARG_OF_PERICENTER":103.9805,"MEAN_ANOMALY":256.2103,"EPHEMERIS_TYPE":0,"CLASSIFICATION_TYPE":"U","NORAD_CAT_ID":58989,"ELEMENT_SET_NO":999,"REV_AT_EPOCH":11048,"BSTAR":0.00030948624,"MEAN_MOTION_DOT":1.903e-5,"MEAN_MOTION_DDOT":0},{"OBJECT_NAME":"FENGYUN 1C DEB","OBJECT_ID":"1999-025CNG","EPOCH":"2026-03-07T04:37:43.558464","MEAN_MOTION":14.65650967,"ECCENTRICITY":0.00427742,"INCLINATION":99.2765,"RA_OF_ASC_NODE":318.7173,"ARG_OF_PERICENTER":286.5697,"MEAN_ANOMALY":225.0746,"EPHEMERIS_TYPE":0,"CLASSIFICATION_TYPE":"U","NORAD_CAT_ID":31955,"ELEMENT_SET_NO":999,"REV_AT_EPOCH":97793,"BSTAR":0.0017723442,"MEAN_MOTION_DOT":9.717e-5,"MEAN_MOTION_DDOT":0}]
